NORAD_CAT_ID,OBJECT_NAME,OBJECT_TYPE,EPOCH,MEAN_MOTION,ECCENTRICITY,INCLINATION,RA_OF_ASC_NODE,ARG_OF_PERICENTER,MEAN_ANOMALY,BSTAR,MEAN_MOTION_DOT,MEAN_MOTION_DDOT,TLE_LINE0,TLE_LINE1,TLE_LINE2,SEMIMAJOR_AXIS,PERIOD,APOGEE,PERIGEE,DECAYED
53782.0,STARLINK-4679,PAYLOAD,2024-03-04 03:36:36,15.08873577,0.0001723,53.2192,336.1589,92.9976,267.1213,0.00048024,7.37e-05,0.0,0 STARLINK-4679,1 53782U 22111K   24064.15042287  .00007370  00000-0  48024-3 0  9995,2 53782  53.2192 336.1589 0001723  92.9976 267.1213 15.08873577 81843,6917.778,95.435,540.835,538.451,0.0
53782.0,STARLINK-4679,PAYLOAD,2024-03-04 11:33:33,15.08845772,0.0001565,53.2181,334.6766,79.9677,280.1491,7.7702e-05,9.49e-06,0.0,0 STARLINK-4679,1 53782U 22111K   24064.48163362  .00000949  00000-0  77702-4 0  9990,2 53782  53.2181 334.6766 0001565  79.9677 280.1491 15.08845772 81892,6917.863,95.437,540.81,538.645,0.0
53782.0,STARLINK-4679,PAYLOAD,2024-03-04 22:41:14,15.08847639,0.0001223,53.2178,332.5941,85.5856,274.5275,7.3639e-05,8.85e-06,0.0,0 STARLINK-4679,1 53782U 22111K   24064.94530883  .00000885  00000-0  73639-4 0  9991,2 53782  53.2178 332.5941 0001223  85.5856 274.5275 15.08847639 82772,6917.857,95.437,540.568,538.876,0.0
53782.0,STARLINK-4679,PAYLOAD,2024-03-05 03:27:23,15.0885391,0.0001308,53.2184,331.6975,94.2154,265.8988,0.00013572,1.874e-05,0.0,0 STARLINK-4679,1 53782U 22111K   24065.14402326  .00001874  00000-0  13572-3 0  9992,2 53782  53.2184 331.6975 0001308  94.2154 265.8988 15.08853910 81994,6917.838,95.437,540.608,538.798,0.0
53782.0,STARLINK-4679,PAYLOAD,2024-03-05 20:56:39,15.08829159,0.000135,53.2171,328.4321,82.1786,277.9359,-0.00023989,-4.103e-05,0.0,0 STARLINK-4679,1 53782U 22111K   24065.87267974 -.00004103  00000-0 -23989-3 0  9993,2 53782  53.2171 328.4321 0001350  82.1786 277.9359 15.08829159 82101,6917.914,95.438,540.712,538.845,0.0
53782.0,STARLINK-4679,PAYLOAD,2024-03-06 03:18:11,15.08832297,0.000133,53.2183,327.2378,114.6024,245.5107,-0.00029829,-5.031e-05,0.0,0 STARLINK-4679,1 53782U 22111K   24066.13763708 -.00005031  00000-0 -29829-3 0  9999,2 53782  53.2183 327.2378 0001330 114.6024 245.5107 15.08832297 82959,6917.904,95.438,540.689,538.849,0.0
53782.0,STARLINK-4679,PAYLOAD,2024-03-07 03:08:59,15.08837009,0.0001198,53.2176,322.7794,122.408,237.7028,6.1544e-05,6.92e-06,0.0,0 STARLINK-4679,1 53782U 22111K   24067.13124192  .00000692  00000-0  61544-4 0  9995,2 53782  53.2176 322.7794 0001198 122.4080 237.7028 15.08837009 82292,6917.89,95.438,540.583,538.926,0.0
53782.0,STARLINK-4679,PAYLOAD,2024-03-07 09:30:31,15.08847022,0.0001091,53.218,321.5911,112.9454,247.1653,0.00025475,3.77e-05,0.0,0 STARLINK-4679,1 53782U 22111K   24067.39619844  .00003770  00000-0  25475-3 0  9998,2 53782  53.2180 321.5911 0001091 112.9454 247.1653 15.08847022 83146,6917.859,95.437,540.479,538.969,0.0
53782.0,STARLINK-4679,PAYLOAD,2024-03-07 23:49:00,15.08835313,0.0001329,53.2194,318.9194,117.8531,242.2596,0.00021702,3.167e-05,0.0,0 STARLINK-4679,1 53782U 22111K   24067.99236975  .00003167  00000-0  21702-3 0  9993,2 53782  53.2194 318.9194 0001329 117.8531 242.2596 15.08835313 82420,6917.895,95.438,540.679,538.84,0.0
53782.0,STARLINK-4679,PAYLOAD,2024-03-08 09:21:19,15.08850105,8.61e-05,53.217,317.1294,84.1703,275.9387,0.00039343,5.981e-05,0.0,0 STARLINK-4679,1 53782U 22111K   24068.38980344  .00005981  00000-0  39343-3 0  9999,2 53782  53.2170 317.1294 0000861  84.1703 275.9387 15.08850105 82486,6917.85,95.437,540.31,539.119,0.0
53782.0,STARLINK-4679,PAYLOAD,2024-03-08 15:42:52,15.08834537,0.0001116,53.2178,315.942,98.3302,261.7817,5.061e-05,5.18e-06,0.0,0 STARLINK-4679,1 53782U 22111K   24068.65476905  .00000518  00000-0  50610-4 0  9994,2 53782  53.2178 315.9420 0001116  98.3302 261.7817 15.08834537 82524,6917.897,95.438,540.534,538.99,0.0
53782.0,STARLINK-4679,PAYLOAD,2024-03-09 01:15:10,15.08839611,0.0001159,53.2176,314.1582,94.1908,265.9217,7.426e-05,8.94e-06,0.0,0 STARLINK-4679,1 53782U 22111K   24069.05220739  .00000894  00000-0  74260-4 0  9995,2 53782  53.2176 314.1582 0001159  94.1908 265.9217 15.08839611 83399,6917.882,95.438,540.548,538.945,0.0
53782.0,STARLINK-4679,PAYLOAD,2024-03-10 01:05:57,15.08847792,0.0001201,53.2166,309.698,91.053,269.06,0.00029216,4.366e-05,0.0,0 STARLINK-4679,1 53782U 22111K   24070.04580608  .00004366  00000-0  29216-3 0  9998,2 53782  53.2166 309.6980 0001201  91.0530 269.0600 15.08847792 82731,6917.857,95.437,540.552,538.891,0.0
53782.0,STARLINK-4679,PAYLOAD,2024-03-10 09:02:53,15.08848098,0.0001318,53.2153,308.2097,81.1287,278.9854,0.0003077,4.614e-05,0.0,0 STARLINK-4679,1 53782U 22111K   24070.37700591  .00004614  00000-0  30770-3 0  9992,2 53782  53.2153 308.2097 0001318  81.1287 278.9854 15.08848098 83594,6917.856,95.437,540.632,538.809,0.0
53782.0,STARLINK-4679,PAYLOAD,2024-03-10 21:45:58,15.08833607,0.000114,53.2145,305.831,84.7238,275.3884,-2.1902e-05,-6.36e-06,0.0,0 STARLINK-4679,1 53782U 22111K   24070.90693144 -.00000636  00000-0 -21902-4 0  9996,2 53782  53.2145 305.8310 0001140  84.7238 275.3884 15.08833607 82867,6917.9,95.438,540.554,538.976,0.0
53782.0,STARLINK-4679,PAYLOAD,2024-03-11 08:53:40,15.08844119,0.0001048,53.2157,303.7485,97.1993,262.9118,0.00029043,4.338e-05,0.0,0 STARLINK-4679,1 53782U 22111K   24071.37060879  .00004338  00000-0  29043-3 0  9995,2 53782  53.2157 303.7485 0001048  97.1993 262.9118 15.08844119 82933,6917.868,95.437,540.458,539.008,0.0
53782.0,STARLINK-4679,PAYLOAD,2024-03-12 00:47:32,15.08841692,0.0001206,53.2157,300.7756,83.5587,276.5543,0.00037929,5.754e-05,0.0,0 STARLINK-4679,1 53782U 22111K   24072.03301229  .00005754  00000-0  37929-3 0  9991,2 53782  53.2157 300.7756 0001206  83.5587 276.5543 15.08841692 83033,6917.875,95.437,540.575,538.906,0.0
53782.0,STARLINK-4679,PAYLOAD,2024-03-12 21:27:32,15.08844553,0.000121,53.2156,296.9092,83.3483,276.7647,0.0002837,4.231e-05,0.0,0 STARLINK-4679,1 53782U 22111K   24072.89413188  .00004231  00000-0  28370-3 0  9992,2 53782  53.2156 296.9092 0001210  83.3483 276.7647 15.08844553 83978,6917.866,95.437,540.569,538.894,0.0
53782.0,STARLINK-4679,PAYLOAD,2024-03-13 00:38:19,15.0884696,0.0001193,53.2159,296.3143,83.8107,276.3021,0.00028583,4.265e-05,0.0,0 STARLINK-4679,1 53782U 22111K   24073.02661087  .00004265  00000-0  28583-3 0  9994,2 53782  53.2159 296.3143 0001193  83.8107 276.3021 15.08846960 83189,6917.859,95.437,540.549,538.899,0.0
53782.0,STARLINK-4679,PAYLOAD,2024-03-13 21:18:20,15.08843167,0.0001348,53.2127,292.4475,86.6633,273.4513,0.00015046,2.108e-05,0.0,0 STARLINK-4679,1 53782U 22111K   24073.88773219  .00002108  00000-0  15046-3 0  9993,2 53782  53.2127 292.4475 0001348  86.6633 273.4513 15.08843167 83311,6917.871,95.437,540.668,538.803,0.0
53782.0,STARLINK-4679,PAYLOAD,2024-03-14 19:33:45,15.08808987,0.0001352,53.2167,288.283,75.6175,284.4967,0.00091354,0.00014269,0.0,0 STARLINK-4679,1 53782U 22111K   24074.81510737  .00014269  00000-0  91354-3 0  9998,2 53782  53.2167 288.2830 0001352  75.6175 284.4967 15.08808987 83458,6917.975,95.44,540.775,538.905,0.0
53782.0,STARLINK-4679,PAYLOAD,2024-03-15 00:19:53,15.08838078,0.0001257,53.2168,287.392,83.1815,276.932,4.6629e-05,4.54e-06,0.0,0 STARLINK-4679,1 53782U 22111K   24075.01381454  .00000454  00000-0  46629-4 0  9990,2 53782  53.2168 287.3920 0001257  83.1815 276.9320 15.08838078 83484,6917.886,95.438,540.621,538.882,0.0
53782.0,STARLINK-4679,PAYLOAD,2024-03-16 20:50:41,15.08835676,0.0001101,53.2155,279.0655,94.0131,266.0987,4.2259e-05,3.85e-06,0.0,0 STARLINK-4679,1 53782U 22111K   24076.86853814  .00000385  00000-0  42259-4 0  9996,2 53782  53.2155 279.0655 0001101  94.0131 266.0987 15.08835676 83764,6917.894,95.438,540.52,538.997,0.0
53782.0,STARLINK-4679,PAYLOAD,2024-03-17 20:41:28,15.08841169,0.0001168,53.2162,274.6105,91.9777,268.1349,0.00016665,2.365e-05,0.0,0 STARLINK-4679,1 53782U 22111K   24077.86213704  .00002365  00000-0  16665-3 0  9996,2 53782  53.2162 274.6105 0001168  91.9777 268.1349 15.08841169 84724,6917.877,95.437,540.55,538.934,0.0
53782.0,STARLINK-4679,PAYLOAD,2024-03-18 12:35:19,15.08843965,0.000122,53.2164,271.6353,85.0891,275.0241,0.00016584,2.353e-05,0.0,0 STARLINK-4679,1 53782U 22111K   24078.52453620  .00002353  00000-0  16584-3 0  9990,2 53782  53.2164 271.6353 0001220  85.0891 275.0241 15.08843965 84014,6917.868,95.437,540.577,538.889,0.0
53782.0,STARLINK-4679,PAYLOAD,2024-03-18 20:32:15,15.08842147,0.0001261,53.2169,270.1465,82.1517,277.9618,0.0001372,1.896e-05,0.0,0 STARLINK-4679,1 53782U 22111K   24078.85573877  .00001896  00000-0  13720-3 0  9993,2 53782  53.2169 270.1465 0001261  82.1517 277.9618 15.08842147 84879,6917.874,95.437,540.611,538.866,0.0
53782.0,STARLINK-4679,PAYLOAD,2024-03-19 18:47:39,15.08851227,0.0001256,53.2159,265.9827,85.3232,274.7903,0.00018709,2.692e-05,0.0,0 STARLINK-4679,1 53782U 22111K   24079.78309261  .00002692  00000-0  18709-3 0  9997,2 53782  53.2159 265.9827 0001256  85.3232 274.7903 15.08851227 84203,6917.846,95.437,540.58,538.842,0.0
53782.0,STARLINK-4679,PAYLOAD,2024-03-20 12:16:53,15.08844024,0.0001513,53.2163,262.7141,104.2923,255.8237,0.00014033,1.946e-05,0.0,0 STARLINK-4679,1 53782U 22111K   24080.51173473  .00001946  00000-0  14033-3 0  9991,2 53782  53.2163 262.7141 0001513 104.2923 255.8237 15.08844024 85125,6917.868,95.437,540.78,538.686,0.0
53782.0,STARLINK-4679,PAYLOAD,2024-03-20 18:38:26,15.08835351,0.0001079,53.2151,261.5196,87.2234,272.8882,-2.8851e-05,-7.47e-06,0.0,0 STARLINK-4679,1 53782U 22111K   24080.77669964 -.00000747  00000-0 -28851-4 0  9998,2 53782  53.2151 261.5196 0001079  87.2234 272.8882 15.08835351 84353,6917.895,95.438,540.506,539.013,0.0
53782.0,STARLINK-4679,PAYLOAD,2024-03-21 12:07:42,15.08832587,0.0001227,53.216,258.2473,97.6993,262.4138,-4.7505e-05,-1.044e-05,0.0,0 STARLINK-4679,1 53782U 22111K   24081.50534784 -.00001044  00000-0 -47505-4 0  9999,2 53782  53.2160 258.2473 0001227  97.6993 262.4138 15.08832587 85275,6917.903,95.438,540.617,538.919,0.0
